[{"OBJECT_NAME":"STARLINK-30602","OBJECT_ID":"2023-160G","EPOCH":"2026-03-09T01:02:16.046592","MEAN_MOTION":15.22911342,"ECCENTRICITY":8.15e-5,"INCLINATION":43.0026,"RA_OF_ASC_NODE":81.8046,"ARG_OF_PERICENTER":268.3637,"MEAN_ANOMALY":91.712,"EPHEMERIS_TYPE":0,"CLASSIFICATION_TYPE":"U","NORAD_CAT_ID":58081,"ELEMENT_SET_NO":999,"REV_AT_EPOCH":13284,"BSTAR":0.00020841055,"MEAN_MOTION_DOT":4.737e-5,"MEAN_MOTION_DDOT":0},{"OBJECT_NAME":"ICUBE-1","OBJECT_ID":"2013-066S","EPOCH":"2026-03-09T21:15:50.265216","MEAN_MOTION":15.23110621,"ECCENTRICITY":0.00159988,"INCLINATION":97.5653,"RA_OF_ASC_NODE":53.5484,"ARG_OF_PERICENTER":327.1969,"MEAN_ANOMALY":32.8272,"EPHEMERIS_TYPE":0,"CLASSIFICATION_TYPE":"U","NORAD_CAT_ID":39432,"ELEMENT_SET_NO":999,"REV_AT_EPOCH":66928,"BSTAR":0.00081477483,"MEAN_MOTION_DOT":0.00019249,"MEAN_MOTION_DDOT":0}]
